GLOBALSTAR M084         
1 38040U 11080A   25121.50075625 -.00000070  00000+0  18566-3 0  9992
2 38040  51.9997 190.6048 0000118 186.6667 187.0238 12.62265735616770
GLOBALSTAR M080         
1 38041U 11080B   25121.73961245 -.00000076  00000+0  15499-3 0  9998
2 38041  52.0049 191.4525 0000699  93.3071  56.5589 12.62262509616929
GLOBALSTAR M082         
1 38042U 11080C   25121.59734488 -.00000096  00000+0  42600-4 0  9997
2 38042  52.0052 147.3415 0000586  89.9376  63.2098 12.62266023617618
GLOBALSTAR M092         
1 38043U 11080D   25121.88830815 -.00000071  00000+0  18333-3 0  9999
2 38043  52.0082 236.8288 0000544 116.9707  39.3133 12.62263945616317
GLOBALSTAR M090         
1 38044U 11080E   25121.78598667 -.00000102  00000+0  72386-5 0  9990
2 38044  51.9861 140.6343 0000347 103.3108  67.5254 12.62270053617755
GLOBALSTAR M086         
1 38045U 11080F   25121.56860492 -.00000081  00000+0  12633-3 0  9998
2 38045  51.9871 141.8435 0000848 204.6551 298.2974 12.62270308617671
GLOBALSTAR M097         
1 39072U 13005A   25121.88046257 -.00000102  00000+0  11419-4 0  9994
2 39072  52.0062  55.3911 0000509  89.2075 270.8851 12.62271800564967
GLOBALSTAR M093         
1 39073U 13005B   25121.77469562 -.00000092  00000+0  67747-4 0  9994
2 39073  51.9829  49.0891 0000598  84.4869 275.6066 12.62264161564907
